KUIPER-00517            
1 69600U 26140J   26181.05199935  .00030829  00000+0  80045-3 0  9994
2 69600  51.8775 336.4349 0010316 234.6854 125.3170 15.38655999  3216
KUIPER-00520            
1 69601U 26140K   26181.12951079  .00026259  00000+0  71624-3 0  9993
2 69601  51.8831 336.2073 0005754 296.2296  63.8099 15.37255610  3228
KUIPER-00522            
1 69602U 26140L   26180.85182999  .00023071  00000+0  61143-3 0  9994
2 69602  51.8790 337.3468 0012880 208.1161 151.9132 15.38159463  3186
KUIPER-00528            
1 69603U 26140M   26181.13073237  .00040130  00000+0  10921-2 0  9993
2 69603  51.8796 336.2092 0004649 304.6664  55.3884 15.37114617  3225
KUIPER-00532            
1 69604U 26140N   26180.80926993  .00043475  00000+0  12040-2 0  9992
2 69604  51.8807 337.8033 0006506 322.5958  37.4575 15.36526672  3179
KUIPER-00533            
1 69605U 26140P   26181.12268049  .00010318  00000+0  28158-3 0  9998
2 69605  51.8782 336.1575 0007626 265.1482  94.8634 15.37997745  3226
KUIPER-00534            
1 69606U 26140Q   26181.50002315  .00006535  00000+0  17956-3 0  9993
2 69606  51.8827 334.1634 0014248 210.0011 164.6068 15.38413717  2988
KUIPER-00537            
1 69607U 26140R   26181.13991306  .00025846  00000+0  73718-3 0  9994
2 69607  51.8823 336.2738 0008805 359.8144   0.2838 15.35851311  3225
KUIPER-00538            
1 69608U 26140S   26181.12791349  .00028017  00000+0  76037-3 0  9999
2 69608  51.8821 336.1953 0005503 281.4991  78.5378 15.37376181  3220
KUIPER-00540            
1 69609U 26140T   26180.87294711  .00018552  00000+0  51715-3 0  9991
2 69609  51.8827 337.4864 0005752 327.8236  32.2399 15.36799271  3188
KUIPER-00541            
1 69610U 26140U   26181.12343970  .00020160  00000+0  53994-3 0  9993
2 69610  51.8821 336.1690 0007316 260.5136  99.5024 15.37976074  3222
KUIPER-00542            
1 69611U 26140V   26181.05677114  .00028718  00000+0  76265-3 0  9999
2 69611  51.8789 336.4661 0007821 241.0729 118.9474 15.38020716  3218
KUIPER-00543            
1 69612U 26140W   26180.87551083  .00015834  00000+0  44770-3 0  9996
2 69612  51.8794 337.4952 0006960 344.7048  15.3727 15.36471737  3185
KUIPER-00544            
1 69613U 26140X   26181.12458331  .00031504  00000+0  83949-3 0  9991
2 69613  51.8795 336.1702 0006427 259.2572 100.7692 15.37876831  3226
KUIPER-00546            
1 69614U 26140Y   26180.84962928  .00032664  00000+0  84888-3 0  9993
2 69614  51.8800 337.3328 0015169 206.4361 153.5854 15.38535993  3187
KUIPER-00547            
1 69615U 26140Z   26181.50002315  .00007468  00000+0  20995-3 0  9996
2 69615  51.8827 334.2607 0011358 230.1785  97.6711 15.37493283  1309
KUIPER-00549            
1 69616U 26140AA  26181.13136278  .00024188  00000+0  66531-3 0  9996
2 69616  51.8800 336.2125 0006500 321.1124  38.9394 15.37038477  3227
KUIPER-00550            
1 69617U 26140AB  26181.14249060  .00032101  00000+0  92819-3 0  9994
2 69617  51.8800 336.2853 0006934   9.6044 350.5073 15.35320838  3226
KUIPER-00551            
1 69618U 26140AC  26181.50002315  .00007029  00000+0  19568-3 0  9996
2 69618  51.8796 334.2092 0012729 221.3570 129.8038 15.37890379  1657
KUIPER-00554            
1 69619U 26140AD  26181.50002315  .00006177  00000+0  17481-3 0  9992
2 69619  51.8793 334.2456 0011669 230.6703 102.5746 15.37621035  2940
KUIPER-00555            
1 69620U 26140AE  26181.50002315  .00007639  00000+0  21203-3 0  9995
2 69620  51.8828 334.2281 0012110 223.3580 120.1643 15.37850198  2745
KUIPER-00556            
1 69621U 26140AF  26180.85455105  .00049636  00000+0  13077-2 0  9994
2 69621  51.8794 337.3671 0012562 208.4308 151.5995 15.37955623  3184
KUIPER-00557            
1 69622U 26140AG  26180.98650055 -.00545102  00000+0 -15516-1 0  9990
2 69622  51.8814 336.7501 0009307 242.0473 117.9572 15.37696524  3205
KUIPER-00560            
1 69623U 26140AH  26180.85938223  .00024302  00000+0  63687-3 0  9999
2 69623  51.8790 337.3943 0008816 242.7283 117.2807 15.38515848  3187
KUIPER-00561            
1 69624U 26140AJ  26180.86058055  .00023841  00000+0  62931-3 0  9995
2 69624  51.8824 337.4072 0008082 243.6895 116.3262 15.38311384  3188
KUIPER-00564            
1 69625U 26140AK  26180.85817130  .00040151  00000+0  10389-2 0  9994
2 69625  51.8810 337.3900 0009385 233.0978 126.9150 15.38640191  3189
KUIPER-00567            
1 69626U 26140AL  26180.85306287  .00060344  00000+0  15738-2 0  9990
2 69626  51.8786 337.3536 0013233 209.8461 150.1773 15.38173039  3184
KUIPER-00573            
1 69627U 26140AM  26180.85978948  .00024791  00000+0  67551-3 0  9997
2 69627  51.8789 337.3971 0010019 224.4210 135.5974 15.37288623  3180
