OBJECT_NAME,OBJECT_ID,EPOCH,MEAN_MOTION,ECCENTRICITY,INCLINATION,RA_OF_ASC_NODE,ARG_OF_PERICENTER,MEAN_ANOMALY,EPHEMERIS_TYPE,CLASSIFICATION_TYPE,NORAD_CAT_ID,ELEMENT_SET_NO,REV_AT_EPOCH,BSTAR,MEAN_MOTION_DOT,MEAN_MOTION_DDOT
KUIPER-00517,2026-140J,2026-06-30T01:14:52.743840,15.38655999,.00103162,51.8775,336.4349,234.6854,125.3170,0,U,69600,999,321,.80044558E-3,.30829E-3,0
KUIPER-00520,2026-140K,2026-06-30T03:06:29.732256,15.37255610,.00057544,51.8831,336.2073,296.2296,63.8099,0,U,69601,999,322,.71623852E-3,.26259E-3,0
KUIPER-00522,2026-140L,2026-06-29T20:26:38.111136,15.38159463,.00128803,51.8790,337.3468,208.1161,151.9132,0,U,69602,999,318,.61143155E-3,.23071E-3,0
KUIPER-00528,2026-140M,2026-06-30T03:08:15.276768,15.37114617,.00046499,51.8796,336.2092,304.6664,55.3884,0,U,69603,999,322,.10921476E-2,.4013E-3,0
KUIPER-00532,2026-140N,2026-06-29T19:25:20.921952,15.36526672,.00065067,51.8807,337.8033,322.5958,37.4575,0,U,69604,999,317,.12040187E-2,.43475E-3,0
KUIPER-00533,2026-140P,2026-06-30T02:56:39.594336,15.37997745,.00076261,51.8782,336.1575,265.1482,94.8634,0,U,69605,999,322,.28158447E-3,.10318E-3,0
KUIPER-00534,2026-140Q,2026-06-30T12:00:02.000160,15.38413717,.00142482,51.8827,334.1634,210.0011,164.6068,0,U,69606,999,298,.17956254E-3,.6535E-4,0
KUIPER-00537,2026-140R,2026-06-30T03:21:28.488384,15.35851311,.00088055,51.8823,336.2738,359.8144,0.2838,0,U,69607,999,322,.73718385E-3,.25846E-3,0
KUIPER-00538,2026-140S,2026-06-30T03:04:11.725536,15.37376181,.00055038,51.8821,336.1953,281.4991,78.5378,0,U,69608,999,322,.76036905E-3,.28017E-3,0
KUIPER-00540,2026-140T,2026-06-29T20:57:02.630304,15.36799271,.00057521,51.8827,337.4864,327.8236,32.2399,0,U,69609,999,318,.51715182E-3,.18552E-3,0
KUIPER-00541,2026-140U,2026-06-30T02:57:45.190080,15.37976074,.00073169,51.8821,336.1690,260.5136,99.5024,0,U,69610,999,322,.5399391E-3,.2016E-3,0
KUIPER-00542,2026-140V,2026-06-30T01:21:45.026496,15.38020716,.00078219,51.8789,336.4661,241.0729,118.9474,0,U,69611,999,321,.76265116E-3,.28718E-3,0
KUIPER-00543,2026-140W,2026-06-29T21:00:44.135712,15.36471737,.00069601,51.8794,337.4952,344.7048,15.3727,0,U,69612,999,318,.44769762E-3,.15834E-3,0
KUIPER-00544,2026-140X,2026-06-30T02:59:23.997984,15.37876831,.00064273,51.8795,336.1702,259.2572,100.7692,0,U,69613,999,322,.83948612E-3,.31504E-3,0
KUIPER-00546,2026-140Y,2026-06-29T20:23:27.969792,15.38535993,.00151692,51.8800,337.3328,206.4361,153.5854,0,U,69614,999,318,.8488768E-3,.32664E-3,0
KUIPER-00547,2026-140Z,2026-06-30T12:00:02.000160,15.37493283,.00113584,51.8827,334.2607,230.1785,97.6711,0,U,69615,999,130,.20994554E-3,.7468E-4,0
KUIPER-00549,2026-140AA,2026-06-30T03:09:09.744192,15.37038477,.00065005,51.8800,336.2125,321.1124,38.9394,0,U,69616,999,322,.66530979E-3,.24188E-3,0
KUIPER-00550,2026-140AB,2026-06-30T03:25:11.187840,15.35320838,.0006934,51.8800,336.2853,9.6044,350.5073,0,U,69617,999,322,.92818982E-3,.32101E-3,0
KUIPER-00551,2026-140AC,2026-06-30T12:00:02.000160,15.37890379,.00127296,51.8796,334.2092,221.3570,129.8038,0,U,69618,999,165,.19568202E-3,.7029E-4,0
KUIPER-00554,2026-140AD,2026-06-30T12:00:02.000160,15.37621035,.00116696,51.8793,334.2456,230.6703,102.5746,0,U,69619,999,294,.17480669E-3,.6177E-4,0
KUIPER-00555,2026-140AE,2026-06-30T12:00:02.000160,15.37850198,.00121107,51.8828,334.2281,223.3580,120.1643,0,U,69620,999,274,.2120256E-3,.7639E-4,0
KUIPER-00556,2026-140AF,2026-06-29T20:30:33.210720,15.37955623,.00125629,51.8794,337.3671,208.4308,151.5995,0,U,69621,999,318,.13077335E-2,.49636E-3,0
KUIPER-00557,2026-140AG,2026-06-29T23:40:33.647520,15.37696524,.00093072,51.8814,336.7501,242.0473,117.9572,0,U,69622,999,320,-.15515773E-1,-.545102E-2,0
KUIPER-00560,2026-140AH,2026-06-29T20:37:30.624672,15.38515848,.00088163,51.8790,337.3943,242.7283,117.2807,0,U,69623,999,318,.6368741E-3,.24302E-3,0
KUIPER-00561,2026-140AJ,2026-06-29T20:39:14.159520,15.38311384,.00080828,51.8824,337.4072,243.6895,116.3262,0,U,69624,999,318,.62930922E-3,.23841E-3,0
KUIPER-00564,2026-140AK,2026-06-29T20:35:46.000320,15.38640191,.00093851,51.8810,337.3900,233.0978,126.9150,0,U,69625,999,318,.10389444E-2,.40151E-3,0
KUIPER-00567,2026-140AL,2026-06-29T20:28:24.631968,15.38173039,.00132333,51.8786,337.3536,209.8461,150.1773,0,U,69626,999,318,.15737966E-2,.60344E-3,0
KUIPER-00573,2026-140AM,2026-06-29T20:38:05.811072,15.37288623,.00100191,51.8789,337.3971,224.4210,135.5974,0,U,69627,999,318,.67551102E-3,.24791E-3,0
